[{"OBJECT_NAME":"STARLINK-35783","OBJECT_ID":"2025-247X","EPOCH":"2026-03-09T14:55:46.627680","MEAN_MOTION":15.3019825,"ECCENTRICITY":8.89e-5,"INCLINATION":53.1586,"RA_OF_ASC_NODE":191.7313,"ARG_OF_PERICENTER":80.2019,"MEAN_ANOMALY":279.9082,"EPHEMERIS_TYPE":0,"CLASSIFICATION_TYPE":"U","NORAD_CAT_ID":66286,"ELEMENT_SET_NO":999,"REV_AT_EPOCH":2102,"BSTAR":0.0012624,"MEAN_MOTION_DOT":0.00037214,"MEAN_MOTION_DDOT":0},{"OBJECT_NAME":"CZ-4B DEB","OBJECT_ID":"2004-035N","EPOCH":"2026-03-08T07:19:22.074240","MEAN_MOTION":15.17712882,"ECCENTRICITY":0.00700404,"INCLINATION":97.867,"RA_OF_ASC_NODE":11.9774,"ARG_OF_PERICENTER":119.6038,"MEAN_ANOMALY":241.2197,"EPHEMERIS_TYPE":0,"CLASSIFICATION_TYPE":"U","NORAD_CAT_ID":35270,"ELEMENT_SET_NO":999,"REV_AT_EPOCH":13623,"BSTAR":0.0033008842,"MEAN_MOTION_DOT":0.00071474,"MEAN_MOTION_DDOT":0}]
